EUTELSAT 8 WEST B       
1 40875U 15039B   25340.92128329 -.00000060  00000+0  00000+0 0  9997
2 40875   0.0645 355.0916 0004137 262.1587 142.3766  1.00271351 37724
EUTELSAT 9B             
1 41310U 16005A   25340.91017066  .00000068  00000+0  00000+0 0  9997
2 41310   0.0751  75.8515 0005029 191.9577 144.7914  1.00272556 36186
EUTELSAT 65 WEST A      
1 41382U 16014A   25340.91312824 -.00000271  00000+0  00000+0 0  9993
2 41382   0.0494 356.1689 0002876 268.9659  74.3245  1.00269506 35601
EUTELSAT 117 WEST B     
1 41589U 16038B   25340.90290153 -.00000006  00000+0  00000+0 0  9993
2 41589   0.0031 151.3516 0000326 304.7129 187.9125  1.00270331 34739
EUTELSAT 172B           
1 42741U 17029B   25340.88886144 -.00000001  00000+0  00000+0 0  9998
2 42741   0.0100  82.5178 0000370 107.1069  18.2914  1.00265447 31802
EUTELSAT 7C             
1 44334U 19034B   25340.14271255  .00000056  00000+0  00000+0 0  9995
2 44334   0.0751 179.1623 0003450  60.5290 253.8532  1.00270039  4909
EUTELSAT 5 WEST B       
1 44624U 19067A   25340.92128329 -.00000037  00000+0  00000+0 0  9992
2 44624   0.0663 336.1801 0003593 280.5987 145.8386  1.00270528 22507
EUTELSAT KONNECT        
1 45027U 20005B   25339.92881795  .00000058  00000+0  00000+0 0  9997
2 45027   0.0712  98.3329 0001855 187.6480 130.5550  1.00267987 22381
